{"type": "FeatureCollection", "features": [ {"type": "Feature", "properties": {"norad_id": 66396, "name": "STARLINK-35669", "group": "last-30-days", "lat": -53.13655646385545, "lon": -166.708019030445, "alt_km": 452.72133411087907, "timestamp": "2025-12-08T21:31:03.445787+00:00", "meta": {"OBJECT_NAME": "STARLINK-35669", "OBJECT_ID": "2025-257S", "EPOCH": "2025-12-08T14:00:01.999872", "MEAN_MOTION": 15.39595189, "ECCENTRICITY": 9.997e-05, "INCLINATION": 53.1594, "RA_OF_ASC_NODE": 283.8738, "ARG_OF_PERICENTER": 107.257, "MEAN_ANOMALY": 226.3004, "EPHEMERIS_TYPE": 0, "CLASSIFICATION_TYPE": "U", "NORAD_CAT_ID": 66396, "ELEMENT_SET_NO": 999, "REV_AT_EPOCH": 582, "BSTAR": 0.00078694354, "MEAN_MOTION_DOT": 0.0003118, "MEAN_MOTION_DDOT": 0}, "tle": {"line1": "1 66396U 25257S   25342.58335648  .00031180  00000+0  78694-3 0  9998", "line2": "2 66396  53.1594 283.8738 0000999 107.2570 226.3004 15.39595189  5824"}}, "geometry": {"type": "Point", "coordinates": [-166.708019030445, -53.13655646385545]}}, {"type": "Feature", "properties": {"norad_id": 66397, "name": "STARLINK-35510", "group": "last-30-days", "lat": -46.77236445211719, "lon": -130.55116292469754, "alt_km": 452.70162221807277, "timestamp": "2025-12-08T21:31:03.445798+00:00", "meta": {"OBJECT_NAME": "STARLINK-35510", "OBJECT_ID": "2025-257T", "EPOCH": "2025-12-08T14:00:01.999872", "MEAN_MOTION": 15.39580145, "ECCENTRICITY": 0.00012531, "INCLINATION": 53.1599, "RA_OF_ASC_NODE": 283.8264, "ARG_OF_PERICENTER": 87.9589, "MEAN_ANOMALY": 269.5329, "EPHEMERIS_TYPE": 0, "CLASSIFICATION_TYPE": "U", "NORAD_CAT_ID": 66397, "ELEMENT_SET_NO": 999, "REV_AT_EPOCH": 582, "BSTAR": 0.00083755692, "MEAN_MOTION_DOT": 0.00033204, "MEAN_MOTION_DDOT": 0}, "tle": {"line1": "1 66397U 25257T   25342.58335648  .00033204  00000+0  83756-3 0  9993", "line2": "2 66397  53.1599 283.8264 0001253  87.9589 269.5329 15.39580145  5827"}}, "geometry": {"type": "Point", "coordinates": [-130.55116292469754, -46.77236445211719]}}, {"type": "Feature", "properties": {"norad_id": 66398, "name": "STARLINK-35642", "group": "last-30-days", "lat": -30.90772079553889, "lon": -104.36998152167355, "alt_km": 451.5806759699972, "timestamp": "2025-12-08T21:31:03.445809+00:00", "meta": {"OBJECT_NAME": "STARLINK-35642", "OBJECT_ID": "2025-257U", "EPOCH": "2025-12-08T14:00:01.999872", "MEAN_MOTION": 15.39604928, "ECCENTRICITY": 0.0001437, "INCLINATION": 53.1602, "RA_OF_ASC_NODE": 283.7749, "ARG_OF_PERICENTER": 79.1406, "MEAN_ANOMALY": 304.0237, "EPHEMERIS_TYPE": 0, "CLASSIFICATION_TYPE": "U", "NORAD_CAT_ID": 66398, "ELEMENT_SET_NO": 999, "REV_AT_EPOCH": 582, "BSTAR": 0.0010641601, "MEAN_MOTION_DOT": 0.00042382, "MEAN_MOTION_DDOT": 0}, "tle": {"line1": "1 66398U 25257U   25342.58335648  .00042382  00000+0  10642-2 0  9994", "line2": "2 66398  53.1602 283.7749 0001437  79.1406 304.0237 15.39604928  5824"}}, "geometry": {"type": "Point", "coordinates": [-104.36998152167355, -30.90772079553889]}}, {"type": "Feature", "properties": {"norad_id": 66399, "name": "STARLINK-35657", "group": "last-30-days", "lat": -45.86455358623238, "lon": -128.2506915827844, "alt_km": 452.52232118511347, "timestamp": "2025-12-08T21:31:03.445822+00:00", "meta": {"OBJECT_NAME": "STARLINK-35657", "OBJECT_ID": "2025-257V", "EPOCH": "2025-12-08T14:00:01.999872", "MEAN_MOTION": 15.39585174, "ECCENTRICITY": 9.537e-05, "INCLINATION": 53.1598, "RA_OF_ASC_NODE": 283.8221, "ARG_OF_PERICENTER": 110.88, "MEAN_ANOMALY": 248.4343, "EPHEMERIS_TYPE": 0, "CLASSIFICATION_TYPE": "U", "NORAD_CAT_ID": 66399, "ELEMENT_SET_NO": 999, "REV_AT_EPOCH": 582, "BSTAR": 0.00097142708, "MEAN_MOTION_DOT": 0.00038609, "MEAN_MOTION_DDOT": 0}, "tle": {"line1": "1 66399U 25257V   25342.58335648  .00038609  00000+0  97143-3 0  9994", "line2": "2 66399  53.1598 283.8221 0000953 110.8800 248.4343 15.39585174  5828"}}, "geometry": {"type": "Point", "coordinates": [-128.2506915827844, -45.86455358623238]}}, {"type": "Feature", "properties": {"norad_id": 66400, "name": "STARLINK-35667", "group": "last-30-days", "lat": -11.272701802417744, "lon": -86.34831453632034, "alt_km": 449.672692498837, "timestamp": "2025-12-08T21:31:03.445833+00:00", "meta": {"OBJECT_NAME": "STARLINK-35667", "OBJECT_ID": "2025-257W", "EPOCH": "2025-12-08T14:00:01.999872", "MEAN_MOTION": 15.39559962, "ECCENTRICITY": 0.00014541, "INCLINATION": 53.1598, "RA_OF_ASC_NODE": 283.7222, "ARG_OF_PERICENTER": 82.5077, "MEAN_ANOMALY": 326.521, "EPHEMERIS_TYPE": 0, "CLASSIFICATION_TYPE": "U", "NORAD_CAT_ID": 66400, "ELEMENT_SET_NO": 999, "REV_AT_EPOCH": 582, "BSTAR": 0.0014260114, "MEAN_MOTION_DOT": 0.00056954, "MEAN_MOTION_DDOT": 0}, "tle": {"line1": "1 66400U 25257W   25342.58335648  .00056954  00000+0  14260-2 0  9998", "line2": "2 66400  53.1598 283.7222 0001454  82.5077 326.5210 15.39559962  5826"}}, "geometry": {"type": "Point", "coordinates": [-86.34831453632034, -11.272701802417744]}}, {"type": "Feature", "properties": {"norad_id": 66401, "name": "STARLINK-35668", "group": "last-30-days", "lat": -9.818576179314169, "lon": -85.21272824759141, "alt_km": 449.6342417406804, "timestamp": "2025-12-08T21:31:03.445844+00:00", "meta": {"OBJECT_NAME": "STARLINK-35668", "OBJECT_ID": "2025-257X", "EPOCH": "2025-12-08T14:00:01.999872", "MEAN_MOTION": 15.39558752, "ECCENTRICITY": 0.00015935, "INCLINATION": 53.1597, "RA_OF_ASC_NODE": 283.7186, "ARG_OF_PERICENTER": 89.6063, "MEAN_ANOMALY": 321.2617, "EPHEMERIS_TYPE": 0, "CLASSIFICATION_TYPE": "U", "NORAD_CAT_ID": 66401, "ELEMENT_SET_NO": 999, "REV_AT_EPOCH": 582, "BSTAR": 0.0013707121, "MEAN_MOTION_DOT": 0.00054712, "MEAN_MOTION_DDOT": 0}, "tle": {"line1": "1 66401U 25257X   25342.58335648  .00054712  00000+0  13707-2 0  9994", "line2": "2 66401  53.1597 283.7186 0001593  89.6063 321.2617 15.39558752  5821"}}, "geometry": {"type": "Point", "coordinates": [-85.21272824759141, -9.818576179314169]}}, {"type": "Feature", "properties": {"norad_id": 66402, "name": "STARLINK-35644", "group": "last-30-days", "lat": -29.546109684822202, "lon": -102.85462073710886, "alt_km": 451.6829760586743, "timestamp": "2025-12-08T21:31:03.445854+00:00", "meta": {"OBJECT_NAME": "STARLINK-35644", "OBJECT_ID": "2025-257Y", "EPOCH": "2025-12-08T14:00:01.999872", "MEAN_MOTION": 15.39588735, "ECCENTRICITY": 0.00013734, "INCLINATION": 53.1599, "RA_OF_ASC_NODE": 283.7702, "ARG_OF_PERICENTER": 93.0224, "MEAN_ANOMALY": 292.0522, "EPHEMERIS_TYPE": 0, "CLASSIFICATION_TYPE": "U", "NORAD_CAT_ID": 66402, "ELEMENT_SET_NO": 999, "REV_AT_EPOCH": 582, "BSTAR": 0.0010051592, "MEAN_MOTION_DOT": 0.00039976, "MEAN_MOTION_DDOT": 0}, "tle": {"line1": "1 66402U 25257Y   25342.58335648  .00039976  00000+0  10052-2 0  9990", "line2": "2 66402  53.1599 283.7702 0001373  93.0224 292.0522 15.39588735  5826"}}, "geometry": {"type": "Point", "coordinates": [-102.85462073710886, -29.546109684822202]}}, {"type": "Feature", "properties": {"norad_id": 66403, "name": "STARLINK-35602", "group": "last-30-days", "lat": 8.475602223111323, "lon": -71.38946783705143, "alt_km": 442.0620472033188, "timestamp": "2025-12-08T21:31:03.445865+00:00", "meta": {"OBJECT_NAME": "STARLINK-35602", "OBJECT_ID": "2025-257Z", "EPOCH": "2025-12-08T14:00:01.999872", "MEAN_MOTION": 15.42548509, "ECCENTRICITY": 8.174e-05, "INCLINATION": 53.1598, "RA_OF_ASC_NODE": 283.6775, "ARG_OF_PERICENTER": 125.3616, "MEAN_ANOMALY": 305.7316, "EPHEMERIS_TYPE": 0, "CLASSIFICATION_TYPE": "U", "NORAD_CAT_ID": 66403, "ELEMENT_SET_NO": 999, "REV_AT_EPOCH": 582, "BSTAR": -0.043663792, "MEAN_MOTION_DOT": -0.01742389, "MEAN_MOTION_DDOT": 0}, "tle": {"line1": "1 66403U 25257Z   25342.58335648 -.01742389  00000+0 -43664-1 0  9997", "line2": "2 66403  53.1598 283.6775 0000817 125.3616 305.7316 15.42548509  5823"}}, "geometry": {"type": "Point", "coordinates": [-71.38946783705143, 8.475602223111323]}}, {"type": "Feature", "properties": {"norad_id": 66404, "name": "STARLINK-35691", "group": "last-30-days", "lat": 9.94243949435423, "lon": -70.25602481196333, "alt_km": 441.9026888264916, "timestamp": "2025-12-08T21:31:03.445876+00:00", "meta": {"OBJECT_NAME": "STARLINK-35691", "OBJECT_ID": "2025-257AA", "EPOCH": "2025-12-08T14:00:01.999872", "MEAN_MOTION": 15.42546333, "ECCENTRICITY": 6.351e-05, "INCLINATION": 53.1595, "RA_OF_ASC_NODE": 283.6737, "ARG_OF_PERICENTER": 134.4937, "MEAN_ANOMALY": 298.4549, "EPHEMERIS_TYPE": 0, "CLASSIFICATION_TYPE": "U", "NORAD_CAT_ID": 66404, "ELEMENT_SET_NO": 999, "REV_AT_EPOCH": 582, "BSTAR": -0.044258278, "MEAN_MOTION_DOT": -0.01763676, "MEAN_MOTION_DDOT": 0}, "tle": {"line1": "1 66404U 25257AA  25342.58335648 -.01763676  00000+0 -44258-1 0  9990", "line2": "2 66404  53.1595 283.6737 0000635 134.4937 298.4549 15.42546333  5823"}}, "geometry": {"type": "Point", "coordinates": [-70.25602481196333, 9.94243949435423]}}, {"type": "Feature", "properties": {"norad_id": 66405, "name": "STARLINK-35683", "group": "last-30-days", "lat": 23.918490368601276, "lon": -58.421814598851746, "alt_km": 430.37476149493614, "timestamp": "2025-12-08T21:31:03.445887+00:00", "meta": {"OBJECT_NAME": "STARLINK-35683", "OBJECT_ID": "2025-257AB", "EPOCH": "2025-12-08T14:00:01.999872", "MEAN_MOTION": 15.45727037, "ECCENTRICITY": 0.00010752, "INCLINATION": 53.1596, "RA_OF_ASC_NODE": 283.6445, "ARG_OF_PERICENTER": 81.2143, "MEAN_ANOMALY": 6.2353, "EPHEMERIS_TYPE": 0, "CLASSIFICATION_TYPE": "U", "NORAD_CAT_ID": 66405, "ELEMENT_SET_NO": 999, "REV_AT_EPOCH": 567, "BSTAR": -0.046796159, "MEAN_MOTION_DOT": -0.02044798, "MEAN_MOTION_DDOT": 0}, "tle": {"line1": "1 66405U 25257AB  25342.58335648 -.02044798  00000+0 -46796-1 0  9998", "line2": "2 66405  53.1596 283.6445 0001075  81.2143   6.2353 15.45727037  5674"}}, "geometry": {"type": "Point", "coordinates": [-58.421814598851746, 23.918490368601276]}}]}